STARLINK-3090           
1 49132U 21082C   25325.08713189  .00000785  00000+0  73577-4 0  9998
2 49132  69.9981 208.1511 0002653 270.4274  89.6581 14.98334973229712
STARLINK-3077           
1 49133U 21082D   25325.10383384  .00000892  00000+0  82516-4 0  9994
2 49133  69.9986 208.2363 0002964 269.9986  90.0834 14.98331716229711
STARLINK-3078           
1 49134U 21082E   25325.09967200  .00001993  00000+0  17478-3 0  9995
2 49134  69.9982 208.2506 0002510 263.7192  96.3681 14.98328644230914
STARLINK-3073           
1 49135U 21082F   25325.00323257  .00000826  00000+0  76995-4 0  9999
2 49135  69.9977 168.4734 0003001 271.5871  88.4945 14.98328314230690
STARLINK-3055           
1 49137U 21082H   25324.93675416  .00000888  00000+0  83844-4 0  9998
2 49137  69.9978 189.0992 0002439 271.0941  88.9938 14.97521234230170
STARLINK-3058           
1 49138U 21082J   25325.09548804  .00003438  00000+0  29574-3 0  9990
2 49138  69.9997 208.2649 0003083 271.7657  88.3149 14.98337940229718
STARLINK-3057           
1 49139U 21082K   25324.99488194  .00000308  00000+0  33592-4 0  9993
2 49139  69.9979 168.5017 0003117 270.5104  89.5698 14.98332353230681
STARLINK-3093           
1 49141U 21082M   25325.09131756  .00001810  00000+0  15940-3 0  9992
2 49141  69.9994 208.2784 0003054 271.0499  89.0310 14.98334269230917
STARLINK-3109           
1 49143U 21082P   25325.06629368  .00000428  00000+0  44480-4 0  9998
2 49143  69.9984 188.7769 0002547 270.0856  90.0011 14.97523945231309
STARLINK-3100           
1 49144U 21082Q   25325.08294825  .00002371  00000+0  20635-3 0  9991
2 49144  69.9984 208.2777 0002790 267.7847  92.2992 14.98348005229717
STARLINK-3119           
1 49145U 21082R   25325.03243416  .00000786  00000+0  73616-4 0  9993
2 49145  69.9973 168.4047 0002849 273.5704  86.5129 14.98332496230688
STARLINK-3116           
1 49146U 21082S   25325.06212222  .00001047  00000+0  97455-4 0  9996
2 49146  69.9985 188.7905 0002953 272.4582  87.6238 14.97538151231340
STARLINK-3071           
1 49147U 21082T   25324.97819396  .00000327  00000+0  35154-4 0  9999
2 49147  69.9973 168.5581 0002636 270.7298  89.3559 14.98335125230685
STARLINK-3048           
1 49148U 21082U   25325.05376929  .00000965  00000+0  90497-4 0  9999
2 49148  69.9984 188.7907 0002697 268.6978  91.3871 14.97526545230184
STARLINK-3102           
1 49151U 21082X   25325.02411142 -.00003439  00000+0 -28068-3 0  9992
2 49151  69.9987 168.4321 0002862 291.5388  68.5466 14.98314962231883
STARLINK-3072           
1 49153U 21082Z   25325.01574459 -.00003353  00000+0 -27325-3 0  9994
2 49153  69.9973 168.4601 0003043 280.0033  80.0782 14.98338741231895
STARLINK-3068           
1 49154U 21082AA  25325.04959654 -.00000566  00000+0 -40564-4 0  9996
2 49154  69.9985 188.8051 0003003 267.9619  92.1196 14.97531417231262
