[{"OBJECT_NAME":"STARLINK-3090","OBJECT_ID":"2021-082C","EPOCH":"2025-11-21T02:05:28.195296","MEAN_MOTION":14.98334973,"ECCENTRICITY":0.0002653,"INCLINATION":69.9981,"RA_OF_ASC_NODE":208.1511,"ARG_OF_PERICENTER":270.4274,"MEAN_ANOMALY":89.6581,"EPHEMERIS_TYPE":0,"CLASSIFICATION_TYPE":"U","NORAD_CAT_ID":49132,"ELEMENT_SET_NO":999,"REV_AT_EPOCH":22971,"BSTAR":7.3577e-5,"MEAN_MOTION_DOT":7.85e-6,"MEAN_MOTION_DDOT":0},{"OBJECT_NAME":"STARLINK-3077","OBJECT_ID":"2021-082D","EPOCH":"2025-11-21T02:29:31.243776","MEAN_MOTION":14.98331716,"ECCENTRICITY":0.0002964,"INCLINATION":69.9986,"RA_OF_ASC_NODE":208.2363,"ARG_OF_PERICENTER":269.9986,"MEAN_ANOMALY":90.0834,"EPHEMERIS_TYPE":0,"CLASSIFICATION_TYPE":"U","NORAD_CAT_ID":49133,"ELEMENT_SET_NO":999,"REV_AT_EPOCH":22971,"BSTAR":8.2516e-5,"MEAN_MOTION_DOT":8.92e-6,"MEAN_MOTION_DDOT":0},{"OBJECT_NAME":"STARLINK-3078","OBJECT_ID":"2021-082E","EPOCH":"2025-11-21T02:23:31.660800","MEAN_MOTION":14.98328644,"ECCENTRICITY":0.000251,"INCLINATION":69.9982,"RA_OF_ASC_NODE":208.2506,"ARG_OF_PERICENTER":263.7192,"MEAN_ANOMALY":96.3681,"EPHEMERIS_TYPE":0,"CLASSIFICATION_TYPE":"U","NORAD_CAT_ID":49134,"ELEMENT_SET_NO":999,"REV_AT_EPOCH":23091,"BSTAR":0.00017478,"MEAN_MOTION_DOT":1.993e-5,"MEAN_MOTION_DDOT":0},{"OBJECT_NAME":"STARLINK-3073","OBJECT_ID":"2021-082F","EPOCH":"2025-11-21T00:04:39.294048","MEAN_MOTION":14.98328314,"ECCENTRICITY":0.0003001,"INCLINATION":69.9977,"RA_OF_ASC_NODE":168.4734,"ARG_OF_PERICENTER":271.5871,"MEAN_ANOMALY":88.4945,"EPHEMERIS_TYPE":0,"CLASSIFICATION_TYPE":"U","NORAD_CAT_ID":49135,"ELEMENT_SET_NO":999,"REV_AT_EPOCH":23069,"BSTAR":7.6995e-5,"MEAN_MOTION_DOT":8.26e-6,"MEAN_MOTION_DDOT":0},{"OBJECT_NAME":"STARLINK-3055","OBJECT_ID":"2021-082H","EPOCH":"2025-11-20T22:28:55.559424","MEAN_MOTION":14.97521234,"ECCENTRICITY":0.0002439,"INCLINATION":69.9978,"RA_OF_ASC_NODE":189.0992,"ARG_OF_PERICENTER":271.0941,"MEAN_ANOMALY":88.9938,"EPHEMERIS_TYPE":0,"CLASSIFICATION_TYPE":"U","NORAD_CAT_ID":49137,"ELEMENT_SET_NO":999,"REV_AT_EPOCH":23017,"BSTAR":8.3844e-5,"MEAN_MOTION_DOT":8.88e-6,"MEAN_MOTION_DDOT":0},{"OBJECT_NAME":"STARLINK-3058","OBJECT_ID":"2021-082J","EPOCH":"2025-11-21T02:17:30.166656","MEAN_MOTION":14.9833794,"ECCENTRICITY":0.0003083,"INCLINATION":69.9997,"RA_OF_ASC_NODE":208.2649,"ARG_OF_PERICENTER":271.7657,"MEAN_ANOMALY":88.3149,"EPHEMERIS_TYPE":0,"CLASSIFICATION_TYPE":"U","NORAD_CAT_ID":49138,"ELEMENT_SET_NO":999,"REV_AT_EPOCH":22971,"BSTAR":0.00029574,"MEAN_MOTION_DOT":3.438e-5,"MEAN_MOTION_DDOT":0},{"OBJECT_NAME":"STARLINK-3057","OBJECT_ID":"2021-082K","EPOCH":"2025-11-20T23:52:37.799616","MEAN_MOTION":14.98332353,"ECCENTRICITY":0.0003117,"INCLINATION":69.9979,"RA_OF_ASC_NODE":168.5017,"ARG_OF_PERICENTER":270.5104,"MEAN_ANOMALY":89.5698,"EPHEMERIS_TYPE":0,"CLASSIFICATION_TYPE":"U","NORAD_CAT_ID":49139,"ELEMENT_SET_NO":999,"REV_AT_EPOCH":23068,"BSTAR":3.3592e-5,"MEAN_MOTION_DOT":3.08e-6,"MEAN_MOTION_DDOT":0},{"OBJECT_NAME":"STARLINK-3093","OBJECT_ID":"2021-082M","EPOCH":"2025-11-21T02:11:29.837184","MEAN_MOTION":14.98334269,"ECCENTRICITY":0.0003054,"INCLINATION":69.9994,"RA_OF_ASC_NODE":208.2784,"ARG_OF_PERICENTER":271.0499,"MEAN_ANOMALY":89.031,"EPHEMERIS_TYPE":0,"CLASSIFICATION_TYPE":"U","NORAD_CAT_ID":49141,"ELEMENT_SET_NO":999,"REV_AT_EPOCH":23091,"BSTAR":0.0001594,"MEAN_MOTION_DOT":1.81e-5,"MEAN_MOTION_DDOT":0},{"OBJECT_NAME":"STARLINK-3109","OBJECT_ID":"2021-082P","EPOCH":"2025-11-21T01:35:27.773952","MEAN_MOTION":14.97523945,"ECCENTRICITY":0.0002547,"INCLINATION":69.9984,"RA_OF_ASC_NODE":188.7769,"ARG_OF_PERICENTER":270.0856,"MEAN_ANOMALY":90.0011,"EPHEMERIS_TYPE":0,"CLASSIFICATION_TYPE":"U","NORAD_CAT_ID":49143,"ELEMENT_SET_NO":999,"REV_AT_EPOCH":23130,"BSTAR":4.448e-5,"MEAN_MOTION_DOT":4.28e-6,"MEAN_MOTION_DDOT":0},{"OBJECT_NAME":"STARLINK-3100","OBJECT_ID":"2021-082Q","EPOCH":"2025-11-21T01:59:26.728800","MEAN_MOTION":14.98348005,"ECCENTRICITY":0.000279,"INCLINATION":69.9984,"RA_OF_ASC_NODE":208.2777,"ARG_OF_PERICENTER":267.7847,"MEAN_ANOMALY":92.2992,"EPHEMERIS_TYPE":0,"CLASSIFICATION_TYPE":"U","NORAD_CAT_ID":49144,"ELEMENT_SET_NO":999,"REV_AT_EPOCH":22971,"BSTAR":0.00020635,"MEAN_MOTION_DOT":2.371e-5,"MEAN_MOTION_DDOT":0},{"OBJECT_NAME":"STARLINK-3119","OBJECT_ID":"2021-082R","EPOCH":"2025-11-21T00:46:42.311424","MEAN_MOTION":14.98332496,"ECCENTRICITY":0.0002849,"INCLINATION":69.9973,"RA_OF_ASC_NODE":168.4047,"ARG_OF_PERICENTER":273.5704,"MEAN_ANOMALY":86.5129,"EPHEMERIS_TYPE":0,"CLASSIFICATION_TYPE":"U","NORAD_CAT_ID":49145,"ELEMENT_SET_NO":999,"REV_AT_EPOCH":23068,"BSTAR":7.3616e-5,"MEAN_MOTION_DOT":7.86e-6,"MEAN_MOTION_DDOT":0},{"OBJECT_NAME":"STARLINK-3116","OBJECT_ID":"2021-082S","EPOCH":"2025-11-21T01:29:27.359808","MEAN_MOTION":14.97538151,"ECCENTRICITY":0.0002953,"INCLINATION":69.9985,"RA_OF_ASC_NODE":188.7905,"ARG_OF_PERICENTER":272.4582,"MEAN_ANOMALY":87.6238,"EPHEMERIS_TYPE":0,"CLASSIFICATION_TYPE":"U","NORAD_CAT_ID":49146,"ELEMENT_SET_NO":999,"REV_AT_EPOCH":23134,"BSTAR":9.7455e-5,"MEAN_MOTION_DOT":1.047e-5,"MEAN_MOTION_DDOT":0},{"OBJECT_NAME":"STARLINK-3071","OBJECT_ID":"2021-082T","EPOCH":"2025-11-20T23:28:35.958144","MEAN_MOTION":14.98335125,"ECCENTRICITY":0.0002636,"INCLINATION":69.9973,"RA_OF_ASC_NODE":168.5581,"ARG_OF_PERICENTER":270.7298,"MEAN_ANOMALY":89.3559,"EPHEMERIS_TYPE":0,"CLASSIFICATION_TYPE":"U","NORAD_CAT_ID":49147,"ELEMENT_SET_NO":999,"REV_AT_EPOCH":23068,"BSTAR":3.5154e-5,"MEAN_MOTION_DOT":3.27e-6,"MEAN_MOTION_DDOT":0},{"OBJECT_NAME":"STARLINK-3048","OBJECT_ID":"2021-082U","EPOCH":"2025-11-21T01:17:25.666656","MEAN_MOTION":14.97526545,"ECCENTRICITY":0.0002697,"INCLINATION":69.9984,"RA_OF_ASC_NODE":188.7907,"ARG_OF_PERICENTER":268.6978,"MEAN_ANOMALY":91.3871,"EPHEMERIS_TYPE":0,"CLASSIFICATION_TYPE":"U","NORAD_CAT_ID":49148,"ELEMENT_SET_NO":999,"REV_AT_EPOCH":23018,"BSTAR":9.0497e-5,"MEAN_MOTION_DOT":9.65e-6,"MEAN_MOTION_DDOT":0},{"OBJECT_NAME":"STARLINK-3102","OBJECT_ID":"2021-082X","EPOCH":"2025-11-21T00:34:43.226688","MEAN_MOTION":14.98314962,"ECCENTRICITY":0.0002862,"INCLINATION":69.9987,"RA_OF_ASC_NODE":168.4321,"ARG_OF_PERICENTER":291.5388,"MEAN_ANOMALY":68.5466,"EPHEMERIS_TYPE":0,"CLASSIFICATION_TYPE":"U","NORAD_CAT_ID":49151,"ELEMENT_SET_NO":999,"REV_AT_EPOCH":23188,"BSTAR":-0.00028068,"MEAN_MOTION_DOT":-3.439e-5,"MEAN_MOTION_DDOT":0},{"OBJECT_NAME":"STARLINK-3072","OBJECT_ID":"2021-082Z","EPOCH":"2025-11-21T00:22:40.332576","MEAN_MOTION":14.98338741,"ECCENTRICITY":0.0003043,"INCLINATION":69.9973,"RA_OF_ASC_NODE":168.4601,"ARG_OF_PERICENTER":280.0033,"MEAN_ANOMALY":80.0782,"EPHEMERIS_TYPE":0,"CLASSIFICATION_TYPE":"U","NORAD_CAT_ID":49153,"ELEMENT_SET_NO":999,"REV_AT_EPOCH":23189,"BSTAR":-0.00027325,"MEAN_MOTION_DOT":-3.353e-5,"MEAN_MOTION_DDOT":0},{"OBJECT_NAME":"STARLINK-3068","OBJECT_ID":"2021-082AA","EPOCH":"2025-11-21T01:11:25.141056","MEAN_MOTION":14.97531417,"ECCENTRICITY":0.0003003,"INCLINATION":69.9985,"RA_OF_ASC_NODE":188.8051,"ARG_OF_PERICENTER":267.9619,"MEAN_ANOMALY":92.1196,"EPHEMERIS_TYPE":0,"CLASSIFICATION_TYPE":"U","NORAD_CAT_ID":49154,"ELEMENT_SET_NO":999,"REV_AT_EPOCH":23126,"BSTAR":-4.0564e-5,"MEAN_MOTION_DOT":-5.66e-6,"MEAN_MOTION_DDOT":0}]
